{
  "type": "FeatureCollection",
  "features": [
    {
      "type": "Feature",
      "properties": {
        "norad_id": 41330,
        "name": "COSMOS 2514 (751)",
        "group": "glo-ops",
        "lat": 16.51335464871084,
        "lon": -33.20079953176085,
        "alt_km": 19155.47708542002,
        "timestamp": "2025-12-27T02:10:16.450537+00:00",
        "meta_object_name": "COSMOS 2514 (751)",
        "meta_object_id": "2016-008A",
        "meta_epoch": "2025-12-26T03:04:28.076736",
        "meta_mean_motion": 2.13102515,
        "meta_eccentricity": 0.0011522,
        "meta_inclination": 65.126,
        "meta_ra_of_asc_node": 318.9457,
        "meta_arg_of_pericenter": 220.0095,
        "meta_mean_anomaly": 139.91,
        "meta_ephemeris_type": 0,
        "meta_classification_type": "U",
        "meta_norad_cat_id": 41330,
        "meta_element_set_no": 999,
        "meta_rev_at_epoch": 7693,
        "meta_bstar": 0,
        "meta_mean_motion_dot": -3.4e-07,
        "meta_mean_motion_ddot": 0,
        "tle_line1": "1 41330U 16008A   25360.12810274 -.00000034  00000+0  00000+0 0  9993",
        "tle_line2": "2 41330  65.1260 318.9457 0011522 220.0095 139.9100  2.13102515 76937"
      },
      "geometry": {
        "type": "Point",
        "coordinates": [
          -33.20079953176085,
          16.51335464871084
        ]
      }
    },
    {
      "type": "Feature",
      "properties": {
        "norad_id": 42939,
        "name": "COSMOS 2522 (752)",
        "group": "glo-ops",
        "lat": 33.37606350922769,
        "lon": -0.9515353191484394,
        "alt_km": 19123.505372905933,
        "timestamp": "2025-12-27T02:10:16.450548+00:00",
        "meta_object_name": "COSMOS 2522 (752)",
        "meta_object_id": "2017-055A",
        "meta_epoch": "2025-12-25T23:11:37.074048",
        "meta_mean_motion": 2.13102023,
        "meta_eccentricity": 0.00062782,
        "meta_inclination": 64.0768,
        "meta_ra_of_asc_node": 197.7784,
        "meta_arg_of_pericenter": 223.1458,
        "meta_mean_anomaly": 136.8589,
        "meta_ephemeris_type": 0,
        "meta_classification_type": "U",
        "meta_norad_cat_id": 42939,
        "meta_element_set_no": 999,
        "meta_rev_at_epoch": 6428,
        "meta_bstar": 0,
        "meta_mean_motion_dot": 1.1e-06,
        "meta_mean_motion_ddot": 0,
        "tle_line1": "1 42939U 17055A   25359.96640132  .00000110  00000+0  00000+0 0  9990",
        "tle_line2": "2 42939  64.0768 197.7784 0006278 223.1458 136.8589  2.13102023 64285"
      },
      "geometry": {
        "type": "Point",
        "coordinates": [
          -0.9515353191484394,
          33.37606350922769
        ]
      }
    },
    {
      "type": "Feature",
      "properties": {
        "norad_id": 43508,
        "name": "COSMOS 2527 (756)",
        "group": "glo-ops",
        "lat": 7.057407989729087,
        "lon": -103.5717400446327,
        "alt_km": 19116.686152749735,
        "timestamp": "2025-12-27T02:10:16.450559+00:00",
        "meta_object_name": "COSMOS 2527 (756)",
        "meta_object_id": "2018-053A",
        "meta_epoch": "2025-12-25T22:15:18.516960",
        "meta_mean_motion": 2.13102285,
        "meta_eccentricity": 0.00091278,
        "meta_inclination": 65.4787,
        "meta_ra_of_asc_node": 79.6912,
        "meta_arg_of_pericenter": 228.9036,
        "meta_mean_anomaly": 131.0649,
        "meta_ephemeris_type": 0,
        "meta_classification_type": "U",
        "meta_norad_cat_id": 43508,
        "meta_element_set_no": 999,
        "meta_rev_at_epoch": 5858,
        "meta_bstar": 0,
        "meta_mean_motion_dot": -3e-08,
        "meta_mean_motion_ddot": 0,
        "tle_line1": "1 43508U 18053A   25359.92729765 -.00000003  00000+0  00000+0 0  9990",
        "tle_line2": "2 43508  65.4787  79.6912 0009127 228.9036 131.0649  2.13102285 58586"
      },
      "geometry": {
        "type": "Point",
        "coordinates": [
          -103.5717400446327,
          7.057407989729087
        ]
      }
    },
    {
      "type": "Feature",
      "properties": {
        "norad_id": 43687,
        "name": "COSMOS 2529 (757)",
        "group": "glo-ops",
        "lat": 63.24262144887787,
        "lon": -54.487383841599225,
        "alt_km": 19139.13251789619,
        "timestamp": "2025-12-27T02:10:16.450570+00:00",
        "meta_object_name": "COSMOS 2529 (757)",
        "meta_object_id": "2018-086A",
        "meta_epoch": "2025-12-23T05:01:04.327104",
        "meta_mean_motion": 2.13102131,
        "meta_eccentricity": 0.0006897,
        "meta_inclination": 64.2927,
        "meta_ra_of_asc_node": 198.5346,
        "meta_arg_of_pericenter": 253.659,
        "meta_mean_anomaly": 106.3281,
        "meta_ephemeris_type": 0,
        "meta_classification_type": "U",
        "meta_norad_cat_id": 43687,
        "meta_element_set_no": 999,
        "meta_rev_at_epoch": 5553,
        "meta_bstar": 0,
        "meta_mean_motion_dot": 9.5e-07,
        "meta_mean_motion_ddot": 0,
        "tle_line1": "1 43687U 18086A   25357.20907786  .00000095  00000+0  00000+0 0  9994",
        "tle_line2": "2 43687  64.2927 198.5346 0006897 253.6590 106.3281  2.13102131 55539"
      },
      "geometry": {
        "type": "Point",
        "coordinates": [
          -54.487383841599225,
          63.24262144887787
        ]
      }
    },
    {
      "type": "Feature",
      "properties": {
        "norad_id": 44299,
        "name": "COSMOS 2534 (758)",
        "group": "glo-ops",
        "lat": -45.26400326320244,
        "lon": 47.40953093751079,
        "alt_km": 19121.711435954152,
        "timestamp": "2025-12-27T02:10:16.450582+00:00",
        "meta_object_name": "COSMOS 2534 (758)",
        "meta_object_id": "2019-030A",
        "meta_epoch": "2025-12-26T02:10:04.232064",
        "meta_mean_motion": 2.13102148,
        "meta_eccentricity": 0.00086162,
        "meta_inclination": 64.3664,
        "meta_ra_of_asc_node": 198.4428,
        "meta_arg_of_pericenter": 283.8414,
        "meta_mean_anomaly": 260.9701,
        "meta_ephemeris_type": 0,
        "meta_classification_type": "U",
        "meta_norad_cat_id": 44299,
        "meta_element_set_no": 999,
        "meta_rev_at_epoch": 5123,
        "meta_bstar": 0,
        "meta_mean_motion_dot": 1.1e-06,
        "meta_mean_motion_ddot": 0,
        "tle_line1": "1 44299U 19030A   25360.09032676  .00000110  00000+0  00000+0 0  9990",
        "tle_line2": "2 44299  64.3664 198.4428 0008616 283.8414 260.9701  2.13102148 51234"
      },
      "geometry": {
        "type": "Point",
        "coordinates": [
          47.40953093751079,
          -45.26400326320244
        ]
      }
    },
    {
      "type": "Feature",
      "properties": {
        "norad_id": 44850,
        "name": "COSMOS 2544 (759)",
        "group": "glo-ops",
        "lat": -31.169530617229828,
        "lon": -84.4964444189718,
        "alt_km": 19104.30548861206,
        "timestamp": "2025-12-27T02:10:16.450592+00:00",
        "meta_object_name": "COSMOS 2544 (759)",
        "meta_object_id": "2019-088A",
        "meta_epoch": "2025-12-25T20:55:29.447904",
        "meta_mean_motion": 2.13102067,
        "meta_eccentricity": 0.00144287,
        "meta_inclination": 65.4663,
        "meta_ra_of_asc_node": 79.5196,
        "meta_arg_of_pericenter": 250.7311,
        "meta_mean_anomaly": 109.1604,
        "meta_ephemeris_type": 0,
        "meta_classification_type": "U",
        "meta_norad_cat_id": 44850,
        "meta_element_set_no": 999,
        "meta_rev_at_epoch": 4702,
        "meta_bstar": 0,
        "meta_mean_motion_dot": -3e-08,
        "meta_mean_motion_ddot": 0,
        "tle_line1": "1 44850U 19088A   25359.87186861 -.00000003  00000+0  00000+0 0  9998",
        "tle_line2": "2 44850  65.4663  79.5196 0014428 250.7311 109.1604  2.13102067 47024"
      },
      "geometry": {
        "type": "Point",
        "coordinates": [
          -84.4964444189718,
          -31.169530617229828
        ]
      }
    },
    {
      "type": "Feature",
      "properties": {
        "norad_id": 45358,
        "name": "COSMOS 2545 (760)",
        "group": "glo-ops",
        "lat": 54.62296277561243,
        "lon": 0.7411097871271609,
        "alt_km": 19152.299243109486,
        "timestamp": "2025-12-27T02:10:16.450604+00:00",
        "meta_object_name": "COSMOS 2545 (760)",
        "meta_object_id": "2020-018A",
        "meta_epoch": "2025-12-26T01:37:18.289920",
        "meta_mean_motion": 2.13102654,
        "meta_eccentricity": 0.0011278,
        "meta_inclination": 64.4616,
        "meta_ra_of_asc_node": 318.5028,
        "meta_arg_of_pericenter": 250.7597,
        "meta_mean_anomaly": 109.1229,
        "meta_ephemeris_type": 0,
        "meta_classification_type": "U",
        "meta_norad_cat_id": 45358,
        "meta_element_set_no": 999,
        "meta_rev_at_epoch": 4497,
        "meta_bstar": 0,
        "meta_mean_motion_dot": -3.5e-07,
        "meta_mean_motion_ddot": 0,
        "tle_line1": "1 45358U 20018A   25360.06757280 -.00000035  00000+0  00000+0 0  9994",
        "tle_line2": "2 45358  64.4616 318.5028 0011278 250.7597 109.1229  2.13102654 44977"
      },
      "geometry": {
        "type": "Point",
        "coordinates": [
          0.7411097871271609,
          54.62296277561243
        ]
      }
    }
  ]
}